fotang_id,location_name,location_mandarin_name,latitude,longitude,area,country_iso,localityId,street,postal_code
1,Vihara Tanjung Duren (Nurani Maitreya),天宏佛堂,,,Korwil_3,IDN,25639,Jl. Alpukat 2 No.6-7 RT.2/RW.2,11470
2,Vihara Duta Mas (Pusdiklat Buddhis Maitreyawira),天真佛堂,,,Korwil_3,IDN,25643,Jl. Taman Duta Mas No.55 RT.5/RW.12,11460
3,Vihara Angke (Berkah Maitreya),天基佛堂,,,Korwil_3,IDN,25659,Jl. Angke Jaya II No. 35 RT.010/RW. 006,11330
4,Vihara Cengkareng Elok (Elok Maitreya),天增佛堂,,,Korwil_3,IDN,25637,Perumahan Cengkareng Elok Jl. Nusa Raya Blok G No. 2 RT.09/RW.02,11730
5,Vihara Cengkareng Indah (Maitreya Raya),天公佛堂,,,Korwil_3,IDN,25636,Jl. Melati Indah Raya No. 11,11720
6,Vihara Citra Garden (Citra Maitreya),天化佛堂,,,Korwil_3,IDN,25632,Citra Garden II Blok E1 No.12,11830
7,Vihara Lubuklinggau (Aditya Maitreya),德重佛堂,,,Korwil_5,IDN,20496,Jl. Maluku No. 90,31613
8,Vihara Palembang (Maha Vihara Maitreya Duta),善明佛堂,,,Korwil_5,IDN,20347,Jl. Semeru No.1166,30124
9,Vihara Fatmawati (Rahmat Agung Maitreya),天顯佛堂,,,Korwil_3,IDN,25724,Jl. Fatmawati No.15 Komp. Golden Plaza Blok J12,12430
10,Vihara Grogol (Dhyana Maitreya),慧定佛堂,,,Korwil_3,IDN,25638,Jl. Susilo II  No. 353,11450
11,Vihara Jelambar (Pahala Maitreya),寶智佛堂,,,Korwil_3,IDN,25643,Jl. Jelambar Utama Raya No.12,11460
12,Vihara Kalideres (Samudra Maitreya),天宗佛堂,,,Korwil_3,IDN,25671,Perum Kalideres Permai Blok B6 No.7,11840
13,Vihara Kartini (Maitreya Abadi),慧永佛堂,,,Korwil_3,IDN,25565,Jln. Kartini IV Dalam  No.32,10750
14,Vihara Kelapa Gading (Bumi Maitreya),天光佛堂,,,Korwil_3,IDN,25629,Jl. Sumagung III Blok E3 No. 4,14240
15,Vihara Kemanggisan (Ajita Maitreya),慧勝佛堂,,,Korwil_3,IDN,25676,Jl. U No. 17D,11480
16,Vihara Kemenangan (Sariputra Maitreya),盛明佛堂,,,Korwil_3,IDN,25651,Jl. Kemenangan III No. 126,11120
17,Vihara Kemayoran (Nirmala Maitreya),天心佛堂,,,Korwil_3,IDN,25566,Jl. Sentani Blok M No.6 RT.003/RW.007,10720
18,Vihara Kemurnian (Sariputra Maitreya),佛明佛堂,,,Korwil_3,IDN,25651,Jl. Kemurnian V No. 5A,11120
19,Vihara Muara Karang (Indra Maitreya),明昌佛堂,,,Korwil_3,IDN,25605,Muara Karang Blok C7 Selatan 16,14450
20,Vihara Pademangan II (Abdi Maitreya),天振佛堂,,,Korwil_3,IDN,25626,Jl. Pademangan II Gg. XV No.37,14410
21,Vihara Pademangan III (Mustika Maitreya),慧源佛堂,,,Korwil_3,IDN,25626,Jl. Pademangan III Gg. XI No. 11A ,14410
22,Vihara Pademangan IV (Kasih Maitreya),天瑞佛堂,,,Korwil_3,IDN,25626,Pademangan IV Gg. 27 No 23,14410
23,Vihara Palem Mutiara (Mutiara Maitreya),慈禮佛堂,,,Korwil_3,IDN,25637,Ruko Mutiara Palem Blok C5/28 - 30 Jl. Kamal Raya Outer Outer Ring Road,11730
24,Vihara Palmerah (Adhi Maitreya),順明佛堂,,,Korwil_3,IDN,25676,Jl. Kemandoran I No. 11,12210
25,Vihara Pantai Indah Kapuk (Pantai Indah Maitreya),天如佛堂,,,Korwil_3,IDN,25602,Bukit Golf Mediterania PIK Rukan Eksklusive Blok D No. 32 Jl. Marina Raya,14470
26,Vihara Pluit (Maitreya Sakti),慧成佛堂,,,Korwil_3,IDN,25605,Jl. Pluit Sakti IV No. 8,14450
27,Vihara Senen (Maitreya Jaya),聖德佛堂,,,Korwil_3,IDN,25579,Jl. Kramat Soka No.19,10450
28,Vihara Sunter (Maitreya Agung),明佛佛堂,,,Korwil_3,IDN,25611,Jl. Danau Sunter Utara Nirwana Sunter Asri ,14350
29,"Vihara Sunter, RS Royal Progress (Nirwana Maitreya)",天開佛堂,,,Korwil_3,IDN,25611,Sunter Agung Podomoro Blok G1 No. 24,14350
30,Vihara Taman Kencana (Kencana Maitreya),天華佛堂,,,Korwil_3,IDN,25673,Perum. Taman Kencana Blok C1 No.1A,11730
31,Vihara Taman Palem (Anugerah Maitreya),天輔佛堂,,,Korwil_3,IDN,25675,Permata Taman Palem Blok D1 No. 38,11830
32,Vihara Taman Ratu (Khsanti Maitreya),天宣佛堂,,,Korwil_3,IDN,25668,Perum.Taman Ratu blok A2 No.10 Jl.Daan Mogot,11510
33,Vihara Taman Semanan (Arya Maitreya),慧玲佛堂,,,Korwil_3,IDN,25672,Taman Semanan Indah Blok D10  No. 37,11850
34,Vihara Tambora (Maitreya Tambora),真光佛堂,,,Korwil_3,IDN,25653,Jl. Tambora No. 58A,11220
35,Vihara Tanjung Priok (Buddha Maitreya),覺明佛堂,,,Korwil_3,IDN,25615,Jl. Dukuh 1H,14270
36,Vihara Teluk Gong (Karuna Maitreya),明光佛堂,,,Korwil_3,IDN,25604,Jl. 21 No. 325,14450
37,Vihara TPI (Permata Maitreya),天理佛堂,,,Korwil_3,IDN,25604,Taman Permata Indah Blok PG  No. 7,14450
38,Vihara Bekasi Barat (THI) (Harapan Maitreya),慧華佛堂,,,Korwil_3,IDN,30831,Taman Harapan Indah Blok JA No. 4,17131
39,Vihara Bekasi Selatan (Satya Maitreya),慧能佛堂,,,Korwil_3,IDN,31564,Jl. Surya B 379 Komplex Mas Naga,17146
40,Vihara Bekasi Timur (Taman Kota) (Dharma Maitreya),慧法佛堂,,,Korwil_3,IDN,31547,Perum. Taman Kota Blok A4  No. 29 RT 016 RW 003,17112
41,Vihara Cikarang (Meikarta),慧佈佛堂,,,Korwil_3,IDN,30981,Jln Gn Tangkuban Perahu Cosmos Centre B.33,17530
42,Vihara Alam Sutera (Sinar Kasih Maitreya),博明佛堂,,,Korwil_3,IDN,50635,Jalur Sutera Blok E No. 11 Perumahan de Mansion,15143
43,Vihara BSD (Damai Maitreya),慧群佛堂,,,Korwil_3,IDN,50769,Jl. Han Juang No.8 Bumi Serpong Damai,15310
44,Vihara Budi Indah (Budi Maitreya),天達佛堂,,,Korwil_3,IDN,50570,Perumahan Budi Indah Jl. Kerinci No 15 - 16 Type Maisonete,15122
45,Vihara Cimone (Cimone Maitreya),天茂佛堂,,,Korwil_3,IDN,50602,"Jl. Cimone Permai Raya I No. 28, Perum Cimone Permai",15138
46,Vihara Saluyu (Maitreya Raya),天國佛堂,,,Korwil_3,IDN,50139,Cluster Kusuma Dwipa Citra Raya Blok H1 No. 7,15710
47,Vihara Dadap Indah (Parama Maitreya),慧開佛堂,,,Korwil_3,IDN,50089,Perumahan Dadap Indah Blok A2 No. 6,15213
48,Vihara Duta Garden (Duta Maitreya),慧関佛堂,,,Korwil_3,IDN,50579,Perum. Duta Gardenia Blok A7 No. 14,15124
49,Vihara Gading Serpong (Dhammacitta Maitreya),慧興佛堂,,,Korwil_3,IDN,50183,"Jl. Raya Kelapa Dua Ruko Paramount Centre Blok D No. 2.3.5, RT. 001 / RW. 010",15810
50,Vihara Grand Duta (Grand Duta Kasih Maitreya),慈勝佛堂,,,Korwil_3,IDN,50616,Ruko Dolomite Blok DA8 No.15 & 16 RT.006 RW.019 Duta Indah Residence Jl. Raya Grand Duta Tangerang,15131
51,Vihara Kedaung Baru (Puspa Sari Maitreya),慧公佛堂,,,Korwil_3,IDN,50631,"Jl. Iskandar Muda Gg. Isabella, No. 32 RT. 007/ RW.003",15128
52,Vihara Metro Permata (Metta Maitreya),慈道佛堂,,,Korwil_3,IDN,50644,Ruko Perumahan Metro Permata I Blok A2 No. 2,15157
53,Vihara Perumnas / Karawaci (Pesona Maitreya),天佈佛堂,,,Korwil_3,IDN,50185,"Jl. Tembaga No. 26, Perum III Karawaci",15138
54,Vihara Poris (Poris Indah Maitreya),慧輔佛堂,,,Korwil_3,IDN,50582,Perumahan Poris Indah Jl. Pinus Raya Blok E no. 1178-1179. RT. 009/010,15148
55,Vihara Regency (Sarira Maitreya),慧謙佛堂,,,Korwil_3,IDN,50066,Jl. G. Sundoro III GB 8 No. 2 Perumahan Regency,15560
56,Vihara Taman Cibodas (Citta Maitreya),志浩佛堂,,,Korwil_3,IDN,50617,Perumahan Taman Cibodas Blok A5 No.18,15132
57,Vihara Tangerang Kota (Ratana Maitreya),明德佛堂,,,Korwil_3,IDN,50560,Jl. Marga No. 21A,15118
58,Vihara Tanjung Kait (Tanjung Maitreya),慧廣佛堂,,,Korwil_3,IDN,50031,Jl. Raya Tg Kait RT 04 RW 03 Margamulya 24 Mauk 130 Belakang Komplek Auri Satuan Radar 201,15330
59,Vihara Tiga Raksa (Maju Maitreya),天進佛堂,,,Korwil_3,IDN,49971,Jl Syekh Mubarok No.38 RT.04/RW.04,15720
60,Vihara Villa Bandara (Bandara Maitreya),天仙佛堂,,,Korwil_3,IDN,50088,Perum Villa Taman Bandara Blok E I No. 25,15211
61,Vihara Binong (Ksatria Maitreya),慧義佛堂,,,Korwil_3,IDN,25924,RT 05/04 Desa Iwul Kampung Binong,16330
62,Vihara Bogor (Dharma Surya Maitreya),精誠佛堂,,,Korwil_3,IDN,31302,Jl. Roda no.94 B,16126
63,Vihara Bogor (Pusdiklat Kasih Alam),天彰佛堂,,,Korwil_3,IDN,26154,Jl. Kapten Yusuf Kota Batu RT.3/RW.10 Ciapus - Belakang Olala,16610
64,Vihara Depok (Dunia Satu Keluarga),天濟佛堂,,,Korwil_3,IDN,31603,Jl. Cempaka no. 2 (bangunan 3 lantai proyek samping gereja),16432
65,"Vihara Kracak, Bogor (Dharma Maitreya)",慧道佛堂,,,Korwil_3,IDN,26197,RT 002/07 Desa Rancabungur Kampung Kracak,16250
66,Vihara Bandung (Maitreya Datu),瑞明佛堂,,,Korwil_3,IDN,31479,Jl. Kebon Sirih No.17,40117
67,Vihara Bandung (Prajna Maitreya),慧益佛堂,,,Korwil_3,IDN,27035,Taman Kopo Indah II C3 No. 21,40218
68,Vihara Cirebon (Bodhidharma Maitreya),禮明佛堂,,,Korwil_3,IDN,31532,Jl. Panjunan No. 87,45112
69,Vihara Garut (Maitreya Jaya),慧宏佛堂,,,Korwil_3,IDN,27286,Jl. Pasir Pogor No. 9,44118
70,Vihara Sukabumi (Metta Maitreya),義德佛堂,,,Korwil_3,IDN,31357,Jl. Lettu Sobri No. 2,43131
71,Vihara Tasikmalaya (Nirvana Maitreya),天登佛堂,,,Korwil_3,IDN,27921,Jl. PS. Kidul  Ruko Mall Mayasari No. 59,46197
72,Vihara Semarang (Semesta Maitreya),慧山佛堂,,,Korwil_3,IDN,40128,Jl. Kalimas Raya No. 61A,50178
73,Vihara Yogyakarta (Bodhicitta Maitreya),普光佛堂,,,Korwil_3,IDN,40747,Jl. Kemetiran No. 9,55272
74,Vihara Yogyakarta (Pusdiklat Sukhavati Maitreya),慧力佛堂,,,Korwil_3,IDN,40676,Jl. Babasari Gg. Purisari No. 11,55281
75,Vihara Tanjung Pandan (Mudita Maitreya),明中佛堂,,,Korwil_5,IDN,24822,Jl. Anwar Aid No.19 Tanjungpandan,33411
76,Maha Vihara dan Pusdiklat Buddha Maitreya Surabaya,天寶彌勒佛院,,,Korwil_1,IDN,49200,Jl. Dukuh Kupang Utara I No. 2-4,60225
77,Vihara Surabaya (Karuna Persada Maitreya),,,,Korwil_1,IDN,49213,Jl. Raya Tenggilis 133A,60292
78,Vihara Surabaya (Jaya Maitreya),,,,Korwil_1,IDN,49116,Jl. Kedung doro 105,60261
79,Vihara Surabaya (Maitreya Jayanti),,,,Korwil_1,IDN,49200,Jl. Kupang Indah VIII / 16,60225
80,Vihara Surabaya (Kerto Maitreya),,,,Korwil_1,IDN,49101,Jl. Siwalan Kerto Permai J23-24,60236
81,Vihara Surabaya (Mudita Maitreya),,,,Korwil_1,IDN,49151,Jl. Taman Simolawang Baru Selatan 20,60143
82,Vihara Surabaya (Sinar Bodhi Maitreya),,,,Korwil_1,IDN,49156,Jl. Bunguran 9,60161
83,Vihara Surabaya (Sinar Netral Maitreya),,,,Korwil_1,IDN,49119,Jl Petemon Gang 3 No. 185 A,60252
84,Vihara Surabaya (Sinar Purnama Maitreya),,,,Korwil_1,IDN,49160,Jl. Tambak Bayan Tengah  10-12,60174
85,Vihara Rogojampi (Maitreya Hui Gui),,,,Korwil_1,IDN,43218,Rogojampi,68462
86,Vihara Malang (Buddha Maitreya),,,,Korwil_1,IDN,48950,Jl. Laksamana Martadinata 82,65118
87,Vihara Malang (Sinar Terang Maitreya),,,,Korwil_1,IDN,48980,Jl. Ikan Paus II / 2-4 Blimbing,65142
88,Vihara Mojokerto (Panna Maitreya),,,,Korwil_1,IDN,49060,Jl. Majapahit 162,61323
89,Vihara Jombang (Sinar Terang Maitreya),,,,Korwil_1,IDN,45164,Jl. RE. Martadinata No. 93,61419
90,Vihara Kediri (Metta Maitreya),,,,Korwil_1,IDN,48882,Jl. Yos Sudarso 100,64129
91,Vihara Madiun (Aditya Maitreya),,,,Korwil_1,IDN,49082,Jl. Panglima Sudirman 64,63153
92,Vihara Pasuruan (Bahtera Maitreya),,,,Korwil_1,IDN,49037,Jl. Lombok 34A,67132
93,Vihara Lumajang (Sariputra Maitreya),,,,Korwil_1,IDN,42754,Jl. Jendral Sutoyo 7,67316
94,Vihara Jember (Jagatnata Maitreya),,,,Korwil_1,IDN,43016,Jl. Raya Sultan Agung VIII/10-12,68131
95,Vihara Bondowoso (Ariya Maitreya),,,,Korwil_1,IDN,43443,Jl. Yos Sudarso 132,68212
96,Vihara Situbondo (Prajna Bavana Maitreya),,,,Korwil_1,IDN,43609,Jl. Basuki Rahmat 15 (Kel.Membaan IV),68323
97,Vihara Banyuwangi (Sinar Cahaya Maitreya),,,,Korwil_1,IDN,43252,Ds.Kepatihan Kec.Kota Banyuwangi,68411
98,Vihara Banyuwangi (Sinar Buddha Maitreya),,,,Korwil_1,IDN,43188,Jl. Pasar 31,68462
99,Maha Vihara dan Pusdiklat Buddha Maitreya Denpasar,神平佛堂,,,Korwil_1,IDN,51520,"Jl. Gunung Soputan 88X",80361
100,Vihara Denpasar (Vimala Maitreya),,,,Korwil_1,IDN,51533,Jl. Dr Sutomo VIII / 5,80118
101,Maitreya Center Tabanan (Hui Mu),,,,Korwil_1,IDN,50922,Jl. Blambangan 11A,82121
102,Maitreya Center Kuta (Hui Ci),,,,Korwil_1,IDN,51041,Jl. Nakula 18B,80361
103,Maitreya Center Singaraja (Hui Deng),,,,Korwil_1,IDN,51450,Jl. Toya Anakan III No.33,81119
104,Maitreya Center Negara (Hui Xia),,,,Korwil_1,IDN,50823,Jl. Arjuna 8A,82218
105,Maitreya Center Jimbaran (Hui Mu),,,,Korwil_1,IDN,51058,Jimbaran,80361
106,Vihara Cakranegara (Sanata Dharma Maitreya),,,,Korwil_1,IDN,52641,Jl. Rajawali II / 16,83239
107,Vihara Ampenan (Prajna Dharma Maitreya),,,,Korwil_1,IDN,52622,Jl. Yos Sudarso 126,83511
108,Vihara Semarang (Mahabodhi Maitreya),光明佛堂,,,Korwil_2,IDN,40137,Jl. Ligu Utara 476-477,50124
109,Vihara Semarang (Dharma Cakra Maitreya),,,,Korwil_2,IDN,40251,Perum. Semarang Indah Blok A7 Jl. Madukoro,50144
110,Vihara Solo (Maitreya Muni),,,,Korwil_2,IDN,40058,Jl. A.R. Hakim No. 73,57129
111,Vihara Pemalang (Parama Maitreya),,,,Korwil_2,IDN,39313,Jl. Pemuda,52313
112,Vihara Salatiga (Iman Maitreya),,,,Korwil_2,IDN,40090,Jl. Kenangasari No. 7 Butuh,50742
113,Vihara Pekalongan (Dharma Cakra Maitreya),,,,Korwil_2,IDN,40193,Jl. Blimbing No. 88,51126
114,Vihara Tegal (Kshanti Maitreya),,,,Korwil_2,IDN,40322,Jl. Veteran No. 51,52111
115,Vihara Cilacap (Karuna Maitreya),,,,Korwil_2,IDN,32042,Jl. RE. Martadinata No. 57B,53211
116,Vihara Purwokerto (Bhavana Maitreya),,,,Korwil_2,IDN,32386,Jl. Baturaden KM5,53124
117,Maha Vihara Maitreya Medan,慈光佛院,,,Korwil_4,IDN,8251,Jl. Boulevard Utara No.8,20371
118,Maha Vihara Vidya Maitreya Siantar,,,,Korwil_4,IDN,12271,Jl. Ade Irma Suryani No.10,21146
119,Vihara Medan (Maha Maitreya),,,,Korwil_4,IDN,12172,Jl. Gandhi No. 224,20214
120,Vihara Medan (Kshanti Maitreya),,,,Korwil_4,IDN,12107,Jl. Thamrin No. 224,20211
121,Vihara Medan (Swara Maitreya),,,,Korwil_4,IDN,12223,Jl. Malaka No.82,20233
122,Vihara Medan (Sutta Maitreya),,,,Korwil_4,IDN,12130,Jl. Selam I/Industri No. 26 A,20226
123,Vihara Medan (Prajna Maitreya),,,,Korwil_4,IDN,12136,Jl. Mesjid No. 2,20231
124,Vihara Medan (Lokottara Maitreya),,,,Korwil_4,IDN,12239,Jl. Sutomo No. 444/ 69,20232
125,Vihara Medan (Dhyana Maitreya),,,,Korwil_4,IDN,12233,Jl. Bakau No.6G d/h No. 10-12,20111
126,Vihara Sambu Baru (Cahaya Maitreya),,,,Korwil_4,IDN,12140,Jl.Danau Batur Lrg II 40,20114
127,Vihara Kp. Anggrung (Maitreya Abadi),,,,Korwil_4,IDN,12213,Jl. Ternak No. 5,20157
128,Vihara T. Kuning (Siddhi Prajna Maitreya),,,,Korwil_4,IDN,12183,Jl. Brij.katamso Gg. Sahabat No. 92 J ,20219
129,Vihara T. Kuning (Prajna Maitreya),,,,Korwil_4,IDN,12183,Jl. Gg. Sado  No.131 A LK.VI ,20219
130,Vihara T. Kuning (Dirgha Maitreya),,,,Korwil_4,IDN,12183,"Komp. Kimsa Baru No.37-38, Km 6,8",20147
131,Vihara Tg. Mulia (Abdi Maitreya),,,,Korwil_4,IDN,12246,Jl. Perwira IV No.36-37,20241
132,Vihara P. Brayan (Maitreya Yana),,,,Korwil_4,IDN,12139,Jl. Pertempuran No.11D,20239
133,Vihara K. Bangun (Karunia Maitreya),,,,Korwil_4,IDN,12145,"Jl. K.L.Y. Sudarso Km.10,5 Ling.V No. 2F",20242
134,Vihara Titi Papan (Maitreya Loka),明貴佛堂,,,Korwil_4,IDN,12142,"Jl. Platina, Lorong 36, D. Rengas Pulau",20251
135,Vihara S. Kantor (Pelita Maitreya),,,,Korwil_4,IDN,12193,Jl. Flores Dalam,20252
136,Vihara Belawan (Mitra Maitreya),,,,Korwil_4,IDN,12157,Jl. Sumatera No. 51,20411
137,Vihara Kp. Lalang (Maitreya Duta),,,,Korwil_4,IDN,12117,Jl. Pinang Baris II G.Petisah 11B,20126
138,Vihara KM12 (Purnama Maitreya),慧圓佛堂,,,Korwil_4,IDN,8196,Jl. Mawar No.73 Desa Purwodadi,20351
139,Vihara Sunggal (Maitreya Sakti),,,,Korwil_4,IDN,12119,Jl. Pasar I No. 1,20128
140,Vihara Binjai (Bodhi Maitreya),,,,Korwil_4,IDN,12372,Jl. Dewi Sartika No. 2-4,20742
141,Vihara Brahrang (Sanatha Maitreya),,,,Korwil_4,IDN,12373,Jl. Rambutan 31/16,20716
142,Vihara Kuala (Maitreya Agung),,,,Korwil_4,IDN,7421,Jl. Multatuli 7,20772
143,Vihara Tandam (Pahala Maitreya),,,,Korwil_4,IDN,8221,Jl.Pasar VII 34,20374
144,Vihara Stabat (Citra Maitreya),,,,Korwil_4,IDN,7474,Jl.Desa perdamaian Ling.III  no. 73,20811
145,Vihara T. Pura (Mandalapura Maitreya),,,,Korwil_4,IDN,7530,"Jl.Langkat,Lr Tengah 26",20853
146,Vihara P. Brandan (Kshanti Maitreya),,,,Korwil_4,IDN,7574,Jl.Mesjid 74,20857
147,Vihara Kabanjahe (Mandalagiri Maitreya),,,,Korwil_4,IDN,7662,Jl.Let.Rata Perangin-Angin 10,22111
148,Vihara Sidikalang (Siddhi Maitreya),,,,Korwil_4,IDN,9042,Jl.Barisan Nauli PO.BOX 53,22217
149,Vihara T. Morawa (Adhi Maitreya),,,,Korwil_4,IDN,7947,Komplek Prima Jl.Perintis Kemerdekaan,20362
150,Vihara L. Pakam (Sasana Maitreya),,,,Korwil_4,IDN,8275,Jl.Tengku Fachruddin 1A,20518
151,Vihara Galang (Cakra Maitreya),,,,Korwil_4,IDN,8153,Jl.Bukit Barisan 91,20585
152,Vihara Pantai Labu (Bahagia Maitreya),,,,Korwil_4,IDN,8301,Jl.Dusun III,20553
153,Vihara Perbaungan (Satya Maitreya),,,,Korwil_4,IDN,10671,Jl.Kabupaten 20,20986
154,Vihara Sei Rampah (Bahtera Maitreya),,,,Korwil_4,IDN,10714,Jl.Stasiun 23 A,20995
155,Vihara T. Tinggi (Maitreya Dharma),,,,Korwil_4,IDN,12425,Jl.Bandar Sakti/Badak 54,20998
156,Vihara Indrapura (Maitreya Pura),,,,Korwil_4,IDN,10931,Jl.Merdeka 79,21256
157,Vihara Perdagangan (Maitreya Kirti),,,,Korwil_4,IDN,8607,Jl.Veteran No.20,21184
158,Vihara Tg. Tiram (Pancaran Maitreya),,,,Korwil_4,IDN,10967,Jl. Nelayan No.74,21255
159,Vihara Kisaran (Maitreya Jaya),,,,Korwil_4,IDN,8844,Jl.Sisingamangaraja 171,21211
160,Vihara Tg. Balai (Bhakti Maitreya),,,,Korwil_4,IDN,12329,Jl.Mesjid 4,21314
161,Vihara Tg. Leidong (Karuna Graha Maitreya),,,,Korwil_4,IDN,11810,Jl. Sekolah No.3,21411
162,Vihara R. Prapat (Sila Maitreya),,,,Korwil_4,IDN,8945,Jl.Imam Bonjol 76,21411
163,Vihara K. Pinang (Surya Maitreya),,,,Korwil_4,IDN,11743,Jl.Jend.Sudirman gg.Bakaran Batu,21464
164,Vihara S. Brombang (Mandala Tirta Maitreya),,,,Korwil_4,IDN,9025,Jl. Tirta,21473
165,Vihara Brastagi (Semesta Maitreya),,,,Korwil_4,IDN,7890,Villa Alam Indah Brastagi No.16,22171
166,Vihara Batang Kuis (Suvarna Patra Maitreya),,,,Korwil_4,IDN,8262,"Jl. Pembangunan No. 48, Batang Kuis",20372
167,Vihara Sibolga (Sukhavati Maitreya),,,,Korwil_4,IDN,12317,Jl. Diponegoro No.9,22513
168,Vihara K. Simpang (Anugrah Maitreya),,,,Korwil_4,IDN,4835,Jl.Iskandar Muda 21,24475
169,Vihara Sumatera Barat (Metta Maitreya),,,,Korwil_4,IDN,13562,Jl. Belakang Pondok 5 C,25134
170,Vihara Pekanbaru (Pusdiklat Bumi Suci Maitreya),天生佛堂,,,Korwil_4,IDN,15674,Jl. Bukit Barisan III/IV No.99 RT. 03 RW III Kel. Tampan Kec. Payung Sekaki,28292
171,Vihara Pekanbaru (Mandala Maitreya), ,,,Korwil_4,IDN,15639,Jl. H. Khadijah Ali 33-35,28155
172,Vihara Pekanbaru (Ariya Maitreya),,,,Korwil_4,IDN,15635,Jl. Kuantan Raya Blok Q No.16,28151
173,Vihara Pekanbaru (Citta Maitreya),,,,Korwil_4,IDN,15660,Jl. Tuanku Tambusai Centra Nangka Mas No. 1,28124
174,Vihara Pekanbaru (Harapan Maitreya),,,,Korwil_4,IDN,15667,Jl. H. Imam Munandar Kompleks SMB No. 8,28126
175,Vihara Perawang (Permata Maitreya),,,,Korwil_4,IDN,15183,Jl. Karet,28685
176,Vihara Bengkalis (Maitreya Sakti),,,,Korwil_4,IDN,14319,Jl. Diponegoro No. 68,28711
177,Vihara Bengkalis (Sinar Maitreya),,,,Korwil_4,IDN,15599,Desa Kudap,28752
178,Vihara Bengkalis (Kasih Maitreya),,,,Korwil_4,IDN,14352,"Jl. Api-api, Sungai Raya",28754
179,Vihara Bengkalis (Dharma Maitreya),,,,Korwil_4,IDN,14372,Jl. Jend. Sudirman 345,28761
180,Vihara Selatpanjang (Maitreya Loka),,,,Korwil_4,IDN,15516,Jl. Teuku Umar 85-A,28753
181,Vihara Selatpanjang (Mulia Maitreya),,,,Korwil_4,IDN,15601,"Jl. Punak, Desa Selat Akar",28752
182,Vihara Dumai (Mudita Maitreya),,,,Korwil_4,IDN,15727,Jl. Kamboja 103,28826
183,Vihara Dumai (Purnama Maitreya),,,,Korwil_4,IDN,15707,Jl. Batu Bintang 162,28816
184,Vihara Dumai (Sakti Maitreya),,,,Korwil_4,IDN,15715,"Jl. PU, Kel. Lubuk Gaung RT 02/ RW 02",28826
185,Vihara Rupat (Murni Maitreya),,,,Korwil_4,IDN,14398,"Desa Pangkalan Durian, RW 05",28781
186,Vihara Rupat (Kasih Maitreya),,,,Korwil_4,IDN,14396,"Kampung Rampang, Kel. Tj. Kapal, RT 07/ RW 03",28781
187,Vihara Rupat (Maitreya Binjai),,,,Korwil_4,IDN,14400,"Desa Hutan Panjang, Kec. Rupat",28781
188,Vihara Rupat (Baruna Maitreya),,,,Korwil_4,IDN,14413,Jl. Pelita RT. 02 RW 01,28781
189,Vihara Rupat (Vimala Maitreya),,,,Korwil_4,IDN,14401,"Dusun Pancur Jaya, Kel. Pangkalan Nyirih",28781
190,Vihara Duri (Paramita Maitreya),,,,Korwil_4,IDN,14382,Jl. Rokan No.28,29893
191,Vihara Rupat (Wisata Maitreya),,,,Korwil_4,IDN,14409,Jl. Yukeng Tanjung Medang,28781
192,Vihara Rohil (Maitreya Dwipa),,,,Korwil_4,IDN,14985,Jl. Perdagangan No.133,28912
193,Vihara Rohil (Duta Maitreya),,,,Korwil_4,IDN,15028,Jl. Gereja 33,28991
194,Vihara Rohil (Samudera Maitreya),,,,Korwil_4,IDN,15047,Jl. Sekolah 25,28912
195,Vihara Inhil (Prajna Maitreya),,,,Korwil_4,IDN,14509,Jl. Letda M. Boya 27,29212
196,Vihara Inhil (Bodhi Maitreya),,,,Korwil_4,IDN,14583,"Jl. Merdeka, Kuala Enok",29271
197,Vihara Inhu (Prajnamitra Maitreya),,,,Korwil_4,IDN,14126,Jl. Bupati Tulus,29319
198,Vihara Siak (Surya Maitreya),,,,Korwil_4,IDN,15190,Jl.. Sultan Syarif Qasim,28773
199,Vihara Pkl. Kerinci (Anugerah Maitreya),,,,Korwil_4,IDN,14722,Kompleks Kerinci Business Centre Blok BB No.09,28654
200,Vihara Penyengat (Cahaya Maitreya),,,,Korwil_4,IDN,15172,"Jl.batin rimbun rt001-rw 001, dusun 1",28662
201,Vihara Kembung Baru (Sukacita Maitreya),,,,Korwil_4,IDN,14365,Kembung Baru,28754
202,Vihara Jangkang (Ceria Maitreya),,,,Korwil_4,IDN,14356,Jangkang,28754
203,Vihara Kelemantan (Damai Maitreya),,,,Korwil_4,IDN,14335,Kelemantan,28711
204,Vihara Bantan Timur (Bahagia Maitreya),,,,Korwil_4,IDN,14350,Bantan Timur,28754
205,Vihara Bantan Tengah (Gembira Maitreya),,,,Korwil_4,IDN,14349,Jl. Gajah Mada,28711
206,Vihara Penebal (Sukses Maitreya),,,,Korwil_4,IDN,14332,Penebal,28711
207,Vihara Maitreya (Sekolah Bengkalis),,,,Korwil_4,IDN,14337,Bengkalis,28713
208,Vihara Tanjung Padang (Karunia Maitreya),,,,Korwil_4,IDN,15595,Tanjung Padang,28752
209,Vihara Selat Panjang (Virya Prajna Maitreya),慧健佛堂,,,Korwil_4,IDN,15518,Jl. teladan selatpanjang timur,28753
210,Vihara Kundur (Mustika Maitreya),,,,Korwil_4,IDN,15555,Jl. Sidosari,28753
211,Vihara Sokop (Cemerlang Maitreya),,,,Korwil_4,IDN,15607,Sokop,28755
212,Vihara Kepau Baru (Cahaya Kasih Maitreya),,,,Korwil_4,IDN,15591,"Jl. Utama, Dusun III",28753
213,Vihara Sonde (Bahtera Maitreya),,,,Korwil_4,IDN,15614,Sonde,28755
214,Vihara Gunap (Maitreya Gunap),,,,Korwil_4,IDN,14396,Gunap,28781
215,Vihara Simpur (Sumber Kasih Maitreya),,,,Korwil_4,IDN,14413,Jl. Poros Ibnu Sina,28781
216,Vihara Bagan Batu (Adhi Maitreya),,,,Korwil_4,IDN,15028,Bagan Batu,28992
217,Vihara Tanjung Pinang (Maitreya Agung),善德佛堂,,,Korwil_4,IDN,25536,Jl. Pelantar IV No. 35,29112
218,Vihara Tanjung Pinang (Sinar Maitreya),,,,Korwil_4,IDN,25538,Jl. Rawasari Blok H-222,29112
219,Vihara Tanjung Pinang (Tirta Maitreya),,,,Korwil_4,IDN,25543,Jl. Besar Tepi Laut,29111
220,Vihara Tanjung Pinang (Karya Maitreya),,,,Korwil_4,IDN,25534,Jl. Pelantar Sulawesi I No. 18,29112
221,Vihara Tanjung Pinang (Sinar Bodhi Maitreya),,,,Korwil_4,IDN,25540,Jl. D.I.Panjaitan KM.IX,29125
222,Vihara Tanjung Pinang (Cetya Bintang Maitreya),,,,Korwil_4,IDN,25536,Jl. Pelantar Alibaba No. 18,29112
223,Vihara Tanjung Pinang (Bumi Maitreya),,,,Korwil_4,IDN,25546,Jl. Ir. Sutami No. 38,29122
224,Vihara Tanjung Pinang (Cetya Puja Maitreya),,,,Korwil_4,IDN,25536,Jl. Nila No. 23 RT.03/RW.014,29113
225,Vihara Kijang (Cetya Surya Dharma Maitreya),,,,Korwil_4,IDN,25137,Kampong Sidodadi RT.01/ RW.05 ,29151
226,Vihara Tanjung Uban (Maitreya Permai),,,,Korwil_4,IDN,25143,Jl. Indunsuri Lobam,29152
227,Vihara Dabo Singkep (Kumala Maitreya),,,,Korwil_4,IDN,25332,Jl. Dewa Ruci RT.06/ RW.03,29871
228,Vihara Dabo Singkep (Kencana Maitreya),,,,Korwil_4,IDN,25355,Paya Luas Barat RT.03/RW.04,29875
229,Vihara Tanjung Balai (Bodhi Maitreya),,,,Korwil_4,IDN,25195,Jl. Ahmad Yani No.4 RT.04/RW.13,29661
230,Vihara Tanjung Balai (Meral Maitreya),,,,Korwil_4,IDN,25201,Jl. Ahmad Yani No.5,29664
231,Vihara Tanjung Balai (Naga Maitreya),,,,Korwil_4,IDN,25354,Jl. A. Yani Gg. Burung Pipit No. 9 Baran II,29873
232,Vihara Pulau Buru (Genta Maitreya),,,,Korwil_4,IDN,25216,Jl. Lundang Panjang,29664
233,Vihara Tanjung Batu (Loka Maitreya),明仁佛堂,,,Korwil_4,IDN,25190,Jl. Pasir Gembur No. 8,29662
234,Vihara Sawang Kundur (Parama Maitreya),,,,Korwil_4,IDN,25222,Jl. Besar Sawang No.10,29662
235,Vihara Tanjung Balai (Pusdiklat Graha Syukur Bahagia),,,,Korwil_4,IDN,25211,Jl. Soekarno Hatta Kamp. Bangun Sari,29663
236,Vihara Batam (Metta Maitreya),,,,Korwil_4,IDN,25498,Komp. Nagoya City Centre Blok A No.5-6,29444
237,Vihara Batam (Lucky Maitreya),,,,Korwil_4,IDN,25498,Komp. Winsor Phase II Blok A No.1,29441
238,Vihara Batam (Cetya Maitreya Perintis),,,,Korwil_4,IDN,25514,Bengkong Harapan I Blok F-21,29458
239,Vihara Batam (Cetya Bahagia Maitreya),,,,Korwil_4,IDN,25504,Tanjungpiayu Blok J No.21,29437
240,Vihara Batam (Maha Vihara Duta Maitreya),"天恩彌勒佛院",,,Korwil_4,IDN,25522,Jl. Bukit Beruntung Sei-Panas,29461
241,Vihara Batam (Prajna Maitreya),,,,Korwil_4,IDN,25514,Kel. Bengkong Laut Kec. Bengkong,29458
242,Vihara Batam (Vihara Tiban Maitreya),,,,Korwil_4,IDN,25483,Kel. Tiban Kec. Sekupang,29427
243,Vihara Surabaya (Dana Maitreya),榮光佛堂,,,Korwil_5,IDN,49127,Jl. Kalisari No. 23,60273
244,Pusdiklat & Vihara Maitreya Khirti,,,,Korwil_5,IDN,20350,Jl. Tembesu Gg. Sariputra No. 385/989,30114
245,Vihara Palembang (Satya Maitreya),,,,Korwil_5,IDN,20398,Jl. D.I.Panjaitan Gg.Muawanah No.9 Plaju,30119
246,Vihara Palembang (Altar Maitreya),,,,Korwil_5,IDN,20323,Jl. Sei Itam No.692 RT/RW 11/4 Bukit Besar,30134
247,Vihara Palembang (Maitreya Raya),,,,Korwil_5,IDN,20360,"Jl. Sukabangun II Km.6,5 No.1007/IM/2000 Suak Simpur",30961
248,Vihara Palembang (Subur Maitreya),,,,Korwil_5,IDN,20418,Jl. MP. Mangku Negara No. 1492 A Kenten Pipa,30961
249,Vihara Palembang (Sutra Maitreya),,,,Korwil_5,IDN,20408,Jl. Karya Baru RT 79 Km. 7,30138
250,Pusdiklat & Maha Vihara Cahaya Maitreya,,,,Korwil_5,IDN,20373,"Jl. Tribarata belakang taspen kelurahan pahlawan Km 3,5 ",30128
251,Vihara Lahat (Suara Maitreya),,,,Korwil_5,IDN,18147,Jl. Prajurit Suhit 104 A,31419
252,Vihara Baturaja (Metta Maitreya),,,,Korwil_5,IDN,17369,Jl. Pahlwan Kemarung No. 417,32121
253,Vihara Prabumulih (Prajna Maitreya),,,,Korwil_5,IDN,20542,Jl. M.Husein 319,31146
254,Vihara Bengkulu (Rukun Maitreya),,,,Korwil_5,IDN,22030,Jl. Hibrida Raya  3 Rt.VIII,38229
255,Vihara Jambi (Putra Maitreya),,,,Korwil_5,IDN,17197,Jl. Diponegoro Gg. Tritura No. 38,36123
256,Vihara Jambi (Ksanti Maitreya),,,,Korwil_5,IDN,16769,Jl. Jendral Sudirman No.36,36514
257,Vihara Bandar Lampung (Maitreya Giri),,,,Korwil_5,IDN,24632,Jl. Laksamana Malahayati No.1,35223
258,Vihara Bandar Lampung (Maitreya Sutta),,,,Korwil_5,IDN,24696,Jl. Let. Jend. Soeprapto No. 20,35127
259,Vihara Bandar Lampung (Khsanti Maitreya),,,,Korwil_5,IDN,24713,"Jl. Ikan Tembakang, Gg. Arwana II no. 26",35226
260,Vihara Metro (Baladewa Maitreya),,,,Korwil_5,IDN,24734,Jl. Terong No. 39,34124
261,Vihara Gedong Tataan (Sukacita Maitreya),,,,Korwil_5,IDN,23992,Jl. Raya Penengahan No.197,35366
262,Vihara Pangkal Pinang (Citra Maitreya),,,,Korwil_5,IDN,25129,"Jl. Batu Giok I No 76 Pangkal pinang, Bangka",33684
263,Vihara Jebus (Dharma Citra Maitreya),,,,Korwil_5,IDN,25046,"Jl. Bukit Lintang II, Parit 3",33362
264,Vihara Sungai Liat (Triloka Maitreya),,,,Korwil_5,IDN,24742,Jl. Laut No 132A Kuday,33211
265,Vihara Toboali (Prajna Paramita Maitreya),,,,Korwil_5,IDN,24871,Jl. Ampera Dalam,33783
266,Vihara Merawang (Satya Dharma Maitreya),,,,Korwil_5,IDN,24771,Jl. Raya Sungailiat,33172
267,Vihara Belinyu (Padma Maitreya),,,,Korwil_5,IDN,24753,Jl. Sungai Butun,33253
268,Vihara Lumut (Langgeng Maitreya),,,,Korwil_5,IDN,24763,Jl. Raya Lumut,33253
269,Vihara Koba (Indah Maitreya),,,,Korwil_5,IDN,24923,Jl. Kenanga Atas,33681
270,Vihara Jebus (Mustika Maitreya),,,,Korwil_5,IDN,25008,Jl. Raya Jebus No 47 A,33362
271,Vihara Muntok (Sempurna Maitreya),,,,Korwil_5,IDN,24988,Jl. Sungai Daeng tebing tinggi,33351
272,Vihara Bakik (Wahyu Maiitreya),,,,Korwil_5,IDN,25045,Jl. Pantai Bakik Gg. Bahagia,33362
273,Vihara Pangkal Pinang (Mulia Maitreya),,,,Korwil_5,IDN,25129,Jl. Kamp. Samak Air Itam,33684
274,Vihara Kebun Jeruk (Mitra Maitreya),,,,Korwil_5,IDN,24829,"Jl. Hasan Saie, Desa Kebun Jeruk",33412
275,Vihara Pilang (Damai Maitreya),,,,Korwil_5,IDN,24830,"Jl. Perikanan, Desa Pilang",33411
276,Vihara Tanjung Binga (Abdi Maitreya),,,,Korwil_5,IDN,24857,"Jl. Tanjung Kelayang, Desa Tanjung Binga",33414
277,Vihara Manggar (Cahaya Maitreya),,,,Korwil_5,IDN,25057,Jl. Jend. Sudirman No.238 Manggar,33512
278,Vihara Kelapa Kampit (Berkah Maitreya),,,,Korwil_5,IDN,25077,"Jl. Pasar No.60, Kec. Kelapa Kampit",33571
279,Vihara Damar (Kasih Maitreya),,,,Korwil_5,IDN,25081,"Jl. Pasar, Desa Damar",33515
280,Vihara Gantung (Maitreya Agung),,,,Korwil_5,IDN,25061,"Jl. PMD I, Desa Kampung Baru, Gantung",33516
281,Pusdiklat & Maha Vihara Sejahtera Maitreya,慧福佛堂,,,Korwil_5,IDN,62888,Jl. D.I. Panjaitan RT. 20 No. 68,75243
282,Vihara Samarinda (Mandala Dharma Maitreya),,,,Korwil_5,IDN,62890,Jl. Yos Sudarso Gg. II No. 78,75242
283,Vihara Balikpapan (Buddha Maitreya),,,,Korwil_5,IDN,62825,Jl. Jend. A. Yani No. 18,76124
284,Vihara Tarakan (Surya Maitreya),,,,Korwil_5,IDN,63380,Jl. Ki Hajar Dewantara Gg. Melati No. 43,77114
285,Vihara Berau (Selamat Maitreya),,,,Korwil_5,IDN,62310,Jl. AKB Sanipah II No. 26,77315
286,Vihara Sintang (Maitreya Agung),,,,Korwil_5,IDN,56839,Jl. Kol. Soegiono Gg. Vihara No. 1,78613
287,Vihara Putussibau (Cahaya Maitreya),,,,Korwil_5,IDN,57420,Pulau Bergerak Desa Penai,78773
288,Vihara Palangkaraya (Inti Maitreya),,,,Korwil_5,IDN,59833,Jl. Aries No. 32 RT. 01 Komplek Amaco,74874
289,Vihara Sampit (Karuna Maitreya),,,,Korwil_5,IDN,58441,Jl. Caman No. 28,74323
290,Vihara Pangkalanbun (Dharma Maitreya),,,,Korwil_5,IDN,58316,Jl. Pramuka Kel. Pasir Panjang,74181
291,Vihara Banjarmasin (Bhavana Maitreya),,,,Korwil_5,IDN,61853,Jl. Veteran No. 69,70236
292,Vihara Kendari (Tekad Maitreya),,,,Korwil_5,IDN,72511,Jl.May.S.Parman No.54,93121
293,Vihara Bau Bau (Buddhata Maitreya),,,,Korwil_5,IDN,72558,"Jl.A.Yani.No.88, Kel.tombak",93717
294,Vihara Kolaka (Buddha Maitreya),,,,Korwil_5,IDN,70320,Jl.Pramuka no.38,93516
295,Vihara Kolaka (Sejahtera Maitreya),,,,Korwil_5,IDN,70320,Jl. Mekongga Indah No. 95,93561
296,Vihara Makassar (Ratna Maitreya),,,,Korwil_5,IDN,70132,"Jl. Jampea No. 12/16, Kelurahan Pattunuang",90174
297,Vihara Makassar (Buddha Maitreya),寶德佛堂,,,Korwil_5,IDN,70139,Jl. Sangir Lrg. 218 No. 2; Jl. Sangir No. 103,90172
298,Vihara Makassar (Lahuta Maitreya),,,,Korwil_5,IDN,70126,"Jl. Wahab Tarru No. 4, Kel. Baru",90174
299,Vihara Palopo (Surupa Maitreya),,,,Korwil_5,IDN,70267,Jl. Kartini No. 8 (Skrg: Diponegoro),91913
300,Vihara Parepare (Kasih Maitreya),,,,Korwil_5,IDN,70249,"Jln. Pettana Rajeng No. 9, Kel. Ujung Baru, Suriang",91131
301,Vihara Palu (Dharma Sunya Maitreya),,,,Korwil_5,IDN,67232,"Jl. Sungai Lariang No. 63A, Palu",94111
302,Vihara Donggala (Upekkha Maitreya),,,,Korwil_5,IDN,65773,"Jl. Trans Sulawesi No. 999, Donggala",94351
303,Vihara Luwuk (Paramita Maitreya),,,,Korwil_5,IDN,65283,"Jl. KH. Agus Salim No. 82, Luwuk",94712
304,Vihara Toli-Toli (Viriya Maitreya),,,,Korwil_5,IDN,65982,"Jl. Languyu No. 1, Toli-Toli",94514
305,Vihara Buol (Nirmanakaya Maitreya),,,,Korwil_5,IDN,66077,Jl. Syarif Mansur No Buol,94565
306,Vihara Mamuju (Buddha Maitreya),,,,Korwil_5,IDN,73389,"Jl. Pangeran  Diponegoro No. 95 Karema, Kec. Mamuju",91512
307,Vihara Manado (Mandalatama Maitreya),,,,Korwil_5,IDN,65031,Jl. Sudirman IV no. 15,95122
308,Vihara Kotamobagu (Maha Maitreya),,,,Korwil_5,IDN,65232,"Jl. Terminal Gang Budi No, 138",95716
309,Vihara Bitung (Prajna Maitreya),,,,Korwil_5,IDN,65058,Jl. AA. Maramis No. 53 B Kel Kadoodan Link. III,95256
310,Vihara Jayapura (Buddha Maitreya),,,,Korwil_5,IDN,77361,Jl. Kelapa Dua Entrop No. 18 Belakang Bank  Syariah Mandiri,99221
311,Vihara Sorong (Buddha Maitreya),,,,Korwil_5,IDN,79184,Jl. Basuki Rahmat Km 9.5 Kelurahan Klaudufu Kec. Remu Selatan Kota Sorong,98412
312,Vihara Manokwari (Buddha Maitreya),,,,Korwil_5,IDN,77725,Jl. Merdeka No. 39  Kelurahan Pardani Kec. Manokwari Barat  Samping Toko Bank Panin,98312
313,Vihara Gorontalo (Pusdiklat Buddha Maitreya),,,,Korwil_5,IDN,73299,Jl. Takiniode Kel.Ipolo,96112
314,Vihara Ternate (Nurani Maitreya),,,,Korwil_5,IDN,76273,Jl. Arnold Mononutu No.141,97713
315,"Maha Vihara Maitreya Pontianak","天慈彌勒佛院",,,Korwil_6,IDN,58112,Jl. Arteri Supadio,78391
316,Vihara Pontianak (Maitreya Murti),,,,Korwil_6,IDN,58256,Jl. Beringin No. 12A,78243
317,Vihara Pontianak (Sutta Maitreya),,,,Korwil_6,IDN,58258,Jl. Irama No. 17,78244
318,Vihara Pontianak (Wirya Maitreya),,,,Korwil_6,IDN,58236,Jl. Gajahmada XI No. 10,78122
319,Vihara Pontianak (Prajna Maitreya),,,,Korwil_6,IDN,58112,Jl. Bumi Indah Raya No. 49B,78391
320,Vihara Pontianak (Purnama Maitreya),,,,Korwil_6,IDN,58237,Jl. Karya Baru Permai Blok A No. 1,78115
321,Vihara Pontianak (Mandala Maitreya),天育佛堂,,,Korwil_6,IDN,58112,Jl. Parit Haji Muksin,78121
322,Vihara Siantan (Sasana Maitreya),,,,Korwil_6,IDN,58252,Jl. Selat Makasar No. 38,78243
323,Vihara Sei Kakap (Nibbana Maitreya),,,,Korwil_6,IDN,58226,Jl. Sungai Kakap Gg. Beringin,78381
324,Vihara Segedong (Maitreya Loka),,,,Korwil_6,IDN,56384,Segedong,78351
325,Vihara Sei Pinyuh (Satya Maitreya),,,,Korwil_6,IDN,56356,Jl. Usaha Baru No. 1,78353
326,Vihara Mempawah (Ratana Maitreya),,,,Korwil_6,IDN,56341,Jl. Melati No. 12,78912
327,Vihara Sosok (Mudita Maitreya),,,,Korwil_6,IDN,56507,Jl. Sosok II No. 33,78562
328,Vihara Tayan (Metta Maitreya),,,,Korwil_6,IDN,56518,Jl. Dwikora No. 88,78564
329,Vihara Nanga Pinoh (Iddhi Maitreya),,,,Korwil_6,IDN,57918,Jl. Kenanga No. 44,79672
330,Vihara Ketapang (Sila Maitreya),,,,Korwil_6,IDN,56757,Jl. Imam Bonjol,78821
331,Vihara Padang Tikar (Panna Maitreya),,,,Korwil_6,IDN,58169,Jl. Medan Sari No. 18,78385
332,Vihara Nanga Serawai (Panna Maitreya),,,,Korwil_6,IDN,57119,Jl. Bayang Kara,78683